{
    "links": {
        "self": "http://www.neowsapp.com/rest/v1/neo/3555164?api_key=iIulBulltgU6a56xZRHN4H3l9WmuAYTsLGpBGhQ2"
    },
    "id": "3555164",
    "neo_reference_id": "3555164",
    "name": "(2011 AS26)",
    "designation": "2011 AS26",
    "nasa_jpl_url": "http://ssd.jpl.nasa.gov/sbdb.cgi?sstr=3555164",
    "absolute_magnitude_h": 22.7,
    "estimated_diameter": {
        "kilometers": {
            "estimated_diameter_min": 0.0766575574,
            "estimated_diameter_max": 0.1714115092
        },
        "meters": {
            "estimated_diameter_min": 76.6575573531,
            "estimated_diameter_max": 171.4115092306
        },
        "miles": {
            "estimated_diameter_min": 0.0476327831,
            "estimated_diameter_max": 0.1065101409
        },
        "feet": {
            "estimated_diameter_min": 251.5011804664,
            "estimated_diameter_max": 562.3737359442
        }
    },
    "is_potentially_hazardous_asteroid": false,
    "close_approach_data": [
        {
            "close_approach_date": "2011-01-07",
            "close_approach_date_full": "2011-Jan-07 03:27",
            "epoch_date_close_approach": 1294370820000,
            "relative_velocity": {
                "kilometers_per_second": "3.0651342112",
                "kilometers_per_hour": "11034.4831603311",
                "miles_per_hour": "6856.3987170402"
            },
            "miss_distance": {
                "astronomical": "0.2149907571",
                "lunar": "83.6314045119",
                "kilometers": "32162159.331847377",
                "miles": "19984639.1087807226"
            },
            "orbiting_body": "Earth"
        }
    ],
    "orbital_data": {
        "orbit_id": "18",
        "orbit_determination_date": "2017-04-06 08:55:00",
        "first_observation_date": "2011-01-12",
        "last_observation_date": "2011-03-02",
        "data_arc_in_days": 49,
        "observations_used": 59,
        "orbit_uncertainty": "6",
        "minimum_orbit_intersection": ".204483",
        "jupiter_tisserand_invariant": "3.575",
        "epoch_osculation": "2459000.5",
        "eccentricity": ".445790672062683",
        "semi_major_axis": "2.142835404503548",
        "inclination": "3.065771661443931",
        "ascending_node_longitude": "280.4031741843298",
        "orbital_period": "1145.728316653887",
        "perihelion_distance": "1.1875793694102",
        "perihelion_argument": "183.9233357707421",
        "aphelion_distance": "3.098091439596895",
        "perihelion_time": "2459002.773537658413",
        "mean_anomaly": "359.2856303321375",
        "mean_motion": ".3142106158739135",
        "equinox": "J2000",
        "orbit_class": {
            "orbit_class_type": "AMO",
            "orbit_class_description": "Near-Earth asteroid orbits similar to that of 1221 Amor",
            "orbit_class_range": "1.017 AU < q (perihelion) < 1.3 AU"
        }
    },
    "is_sentry_object": false
}